{
    "links": {
        "self": "http://www.neowsapp.com/rest/v1/neo/3019079?api_key=iIulBulltgU6a56xZRHN4H3l9WmuAYTsLGpBGhQ2"
    },
    "id": "3019079",
    "neo_reference_id": "3019079",
    "name": "(1999 FR5)",
    "designation": "1999 FR5",
    "nasa_jpl_url": "http://ssd.jpl.nasa.gov/sbdb.cgi?sstr=3019079",
    "absolute_magnitude_h": 23.4,
    "estimated_diameter": {
        "kilometers": {
            "estimated_diameter_min": 0.0555334912,
            "estimated_diameter_max": 0.1241766613
        },
        "meters": {
            "estimated_diameter_min": 55.5334911581,
            "estimated_diameter_max": 124.1766612574
        },
        "miles": {
            "estimated_diameter_min": 0.0345069009,
            "estimated_diameter_max": 0.0771597762
        },
        "feet": {
            "estimated_diameter_min": 182.1964991311,
            "estimated_diameter_max": 407.4037573197
        }
    },
    "is_potentially_hazardous_asteroid": false,
    "close_approach_data": [
        {
            "close_approach_date": "1999-03-12",
            "close_approach_date_full": "1999-Mar-12 20:38",
            "epoch_date_close_approach": 921271080000,
            "relative_velocity": {
                "kilometers_per_second": "7.8749658909",
                "kilometers_per_hour": "28349.8772073112",
                "miles_per_hour": "17615.5112013985"
            },
            "miss_distance": {
                "astronomical": "0.0087932841",
                "lunar": "3.4205875149",
                "kilometers": "1315456.571664867",
                "miles": "817386.8109024846"
            },
            "orbiting_body": "Earth"
        },
        {
            "close_approach_date": "2004-04-07",
            "close_approach_date_full": "2004-Apr-07 17:14",
            "epoch_date_close_approach": 1081358040000,
            "relative_velocity": {
                "kilometers_per_second": "14.5909755549",
                "kilometers_per_hour": "52527.511997667",
                "miles_per_hour": "32638.5532187726"
            },
            "miss_distance": {
                "astronomical": "0.2225144203",
                "lunar": "86.5581094967",
                "kilometers": "33287683.321164761",
                "miles": "20684007.2856092618"
            },
            "orbiting_body": "Earth"
        }
    ],
    "orbital_data": {
        "orbit_id": "11",
        "orbit_determination_date": "2017-04-06 09:17:31",
        "first_observation_date": "1999-03-19",
        "last_observation_date": "1999-03-25",
        "data_arc_in_days": 6,
        "observations_used": 80,
        "orbit_uncertainty": "7",
        "minimum_orbit_intersection": ".00747636",
        "jupiter_tisserand_invariant": "3.854",
        "epoch_osculation": "2459000.5",
        "eccentricity": ".4785919262556071",
        "semi_major_axis": "1.852742182400808",
        "inclination": "3.859519453513419",
        "ascending_node_longitude": "355.78150091",
        "orbital_period": "921.129966285001",
        "perihelion_distance": ".966034732470588",
        "perihelion_argument": "149.0406270972294",
        "aphelion_distance": "2.739449632331028",
        "perihelion_time": "2458594.008432737590",
        "mean_anomaly": "158.866793580343",
        "mean_motion": ".3908243279196658",
        "equinox": "J2000",
        "orbit_class": {
            "orbit_class_type": "APO",
            "orbit_class_description": "Near-Earth asteroid orbits which cross the Earth’s orbit similar to that of 1862 Apollo",
            "orbit_class_range": "a (semi-major axis) > 1.0 AU; q (perihelion) < 1.017 AU"
        }
    },
    "is_sentry_object": false
}